ONEWEB-0473             
1 51653U 22012AH  26201.92793679 -.00000603  00000+0 -17626-2 0  9994
2 51653  87.8814  29.5511 0001837  90.6166 269.5172 13.10372054213721
ONEWEB-0474             
1 51654U 22012AJ  26201.76673663 -.00000193  00000+0 -58841-3 0  9996
2 51654  87.8821  29.5707 0001660  97.6736 262.4580 13.10369985213691
ONEWEB-0475             
1 51655U 22012AK  26201.86206727  .00000010  00000+0 -62826-5 0  9998
2 51655  87.9153 359.1739 0001598 115.2233 244.9065 13.17648476218125
ONEWEB-0490             
1 54113U 22138A   26201.79723697 -.00000013  00000+0 -66014-4 0  9997
2 54113  87.9193 298.2765 0002102 104.6458 255.4908 13.19724121181267
ONEWEB-0492             
1 54114U 22138B   26201.82250351 -.00000004  00000+0 -41279-4 0  9990
2 54114  87.9182 298.2708 0002262 102.1742 257.9644 13.19724226181270
ONEWEB-0495             
1 54115U 22138C   26201.80039443 -.00000065  00000+0 -19498-3 0  9990
2 54115  87.9184 298.2778 0002364 115.2968 244.8410 13.19726331181251
ONEWEB-0497             
1 54116U 22138D   26201.81302454 -.00000016  00000+0 -72297-4 0  9990
2 54116  87.9191 298.2693 0002054 102.9669 257.1693 13.19723828181240
ONEWEB-0499             
1 54117U 22138E   26201.79644998 -.00000001  00000+0 -34009-4 0  9993
2 54117  87.9184 298.2793 0002011 107.7328 252.4024 13.19724624181254
ONEWEB-0500             
1 54118U 22138F   26201.79882245 -.00000021  00000+0 -84904-4 0  9994
2 54118  87.9192 298.2755 0002058  98.3362 261.8004 13.19725955181267
ONEWEB-0501             
1 54119U 22138G   26201.82883725  .00000038  00000+0  62908-4 0  9999
2 54119  87.9191 298.2697 0002206 111.3430 248.7938 13.19726048181241
ONEWEB-0502             
1 54120U 22138H   26201.81460169  .00000013  00000+0 -84925-6 0  9992
2 54120  87.9195 298.2615 0001987 107.9546 252.1804 13.19723818181266
ONEWEB-0503             
1 54121U 22138J   26201.80355218 -.00000031  00000+0 -11076-3 0  9995
2 54121  87.9196 298.2702 0001732  99.9620 260.1708 13.19726509181257
ONEWEB-0504             
1 54122U 22138K   26201.79091644 -.00000027  00000+0 -10094-3 0  9998
2 54122  87.9191 298.2770 0001962 108.0593 252.0753 13.19726378181269
ONEWEB-0505             
1 54123U 22138L   26201.78775204 -.00000010  00000+0 -57653-4 0  9994
2 54123  87.9191 298.2781 0002102 113.3171 246.8183 13.19723054181244
ONEWEB-0506             
1 54124U 22138M   26201.76250250  .00000082  00000+0  17326-3 0  9991
2 54124  87.9193 298.2811 0002111 109.5736 250.5625 13.19725352181230
ONEWEB-0507             
1 54125U 22138N   26201.78301382  .00000037  00000+0  59946-4 0  9992
2 54125  87.9183 298.2859 0002112 105.5966 254.5400 13.19726833181289
ONEWEB-0508             
1 54126U 22138P   26201.77986471  .00000043  00000+0  73907-4 0  9990
2 54126  87.9186 298.2862 0002315 108.8661 251.2723 13.19726143181264
ONEWEB-0509             
1 54127U 22138Q   26201.83040867 -.00000015  00000+0 -69258-4 0  9993
2 54127  87.9194 298.2691 0002088 105.0439 255.0925 13.19724453181249
ONEWEB-0510             
1 54128U 22138R   26201.69227029  .00000114  00000+0  24818-3 0  9995
2 54128  87.9179 267.7595 0001866  85.6563 274.4784 13.20771306183703
ONEWEB-0511             
1 54129U 22138S   26201.82724506  .00000014  00000+0  29813-5 0  9994
2 54129  87.9190 298.2710 0001790 105.1570 254.9760 13.19723757181279
ONEWEB-0512             
1 54130U 22138T   26201.81934145  .00000023  00000+0  26188-4 0  9998
2 54130  87.9183 298.2754 0001983 110.6304 249.5041 13.19723956181241
ONEWEB-0513             
1 54131U 22138U   26201.81112580 -.00000069  00000+0 -20404-3 0  9996
2 54131  87.9190 298.2171 0001835 127.4863 232.6437 13.20269574181150
ONEWEB-0514             
1 54132U 22138V   26201.75932681  .00000048  00000+0  86400-4 0  9996
2 54132  87.9190 298.2841 0001965  96.0592 264.0765 13.19724340181258
ONEWEB-0515             
1 54133U 22138W   26201.67881194  .00000028  00000+0  37451-4 0  9990
2 54133  87.9183 267.7581 0002840  83.1909 276.9547 13.20772425183728
ONEWEB-0516             
1 54134U 22138X   26201.80987113 -.00000005  00000+0 -44091-4 0  9999
2 54134  87.9186 298.2776 0002188 101.7335 258.4043 13.19724530181267
ONEWEB-0517             
1 54135U 22138Y   26201.78933741  .00000009  00000+0 -89509-5 0  9992
2 54135  87.9189 298.2765 0001683  99.5952 260.5371 13.19726316181269
ONEWEB-0518             
1 54136U 22138Z   26201.80829697 -.00000052  00000+0 -16228-3 0  9995
2 54136  87.9184 298.2798 0002243 100.5133 259.6253 13.19724394181260
ONEWEB-0519             
1 54137U 22138AA  26201.83356118  .00000075  00000+0  15579-3 0  9993
2 54137  87.9190 298.2688 0001814  99.5352 260.5986 13.19723733181270
ONEWEB-0520             
1 54138U 22138AB  26201.79249957 -.00000065  00000+0 -19365-3 0  9999
2 54138  87.9194 298.2770 0002128 106.5593 253.5774 13.19724239181259
ONEWEB-0521             
1 54139U 22138AC  26201.82565529 -.00000009  00000+0 -55177-4 0  9990
2 54139  87.9196 298.2600 0001814  98.3280 261.8059 13.19723482181208
