OBJECT_NAME,OBJECT_ID,EPOCH,MEAN_MOTION,ECCENTRICITY,INCLINATION,RA_OF_ASC_NODE,ARG_OF_PERICENTER,MEAN_ANOMALY,EPHEMERIS_TYPE,CLASSIFICATION_TYPE,NORAD_CAT_ID,ELEMENT_SET_NO,REV_AT_EPOCH,BSTAR,MEAN_MOTION_DOT,MEAN_MOTION_DDOT
ONEWEB-0473,2022-012AH,2026-07-20T22:16:13.738656,13.10372054,.00018375,87.8814,29.5511,90.6166,269.5172,0,U,51653,999,21372,-.17626485E-2,-.603E-5,0
ONEWEB-0474,2022-012AJ,2026-07-20T18:24:06.044832,13.10369985,.00016609,87.8821,29.5707,97.6736,262.4580,0,U,51654,999,21369,-.58840971E-3,-.193E-5,0
ONEWEB-0475,2022-012AK,2026-07-20T20:41:22.612128,13.17648476,.00015981,87.9153,359.1739,115.2233,244.9065,0,U,51655,999,21812,-.6282592E-5,.1E-6,0
ONEWEB-0490,2022-138A,2026-07-20T19:08:01.274208,13.19724121,.00021023,87.9193,298.2765,104.6458,255.4908,0,U,54113,999,18126,-.66013607E-4,-.13E-6,0
ONEWEB-0492,2022-138B,2026-07-20T19:44:24.303264,13.19724226,.00022622,87.9182,298.2708,102.1742,257.9644,0,U,54114,999,18127,-.41279317E-4,-.4E-7,0
ONEWEB-0495,2022-138C,2026-07-20T19:12:34.078752,13.19726331,.00023646,87.9184,298.2778,115.2968,244.8410,0,U,54115,999,18125,-.19497944E-3,-.65E-6,0
ONEWEB-0497,2022-138D,2026-07-20T19:30:45.320256,13.19723828,.00020541,87.9191,298.2693,102.9669,257.1693,0,U,54116,999,18124,-.72296772E-4,-.16E-6,0
ONEWEB-0499,2022-138E,2026-07-20T19:06:53.278272,13.19724624,.00020118,87.9184,298.2793,107.7328,252.4024,0,U,54117,999,18125,-.34009141E-4,-.1E-7,0
ONEWEB-0500,2022-138F,2026-07-20T19:10:18.259680,13.19725955,.00020589,87.9192,298.2755,98.3362,261.8004,0,U,54118,999,18126,-.84904464E-4,-.21E-6,0
ONEWEB-0501,2022-138G,2026-07-20T19:53:31.538400,13.19726048,.00022064,87.9191,298.2697,111.3430,248.7938,0,U,54119,999,18124,.62907891E-4,.38E-6,0
ONEWEB-0502,2022-138H,2026-07-20T19:33:01.586016,13.19723818,.00019875,87.9195,298.2615,107.9546,252.1804,0,U,54120,999,18126,-.849252E-6,.13E-6,0
ONEWEB-0503,2022-138J,2026-07-20T19:17:06.908352,13.19726509,.00017326,87.9196,298.2702,99.9620,260.1708,0,U,54121,999,18125,-.11076196E-3,-.31E-6,0
ONEWEB-0504,2022-138K,2026-07-20T18:58:55.180416,13.19726378,.00019624,87.9191,298.2770,108.0593,252.0753,0,U,54122,999,18126,-.10093838E-3,-.27E-6,0
ONEWEB-0505,2022-138L,2026-07-20T18:54:21.776256,13.19723054,.00021024,87.9191,298.2781,113.3171,246.8183,0,U,54123,999,18124,-.57653441E-4,-.1E-6,0
ONEWEB-0506,2022-138M,2026-07-20T18:18:00.216000,13.19725352,.00021119,87.9193,298.2811,109.5736,250.5625,0,U,54124,999,18123,.1732558E-3,.82E-6,0
ONEWEB-0507,2022-138N,2026-07-20T18:47:32.394048,13.19726833,.00021124,87.9183,298.2859,105.5966,254.5400,0,U,54125,999,18128,.59945953E-4,.37E-6,0
ONEWEB-0508,2022-138P,2026-07-20T18:43:00.310944,13.19726143,.00023151,87.9186,298.2862,108.8661,251.2723,0,U,54126,999,18126,.73907295E-4,.43E-6,0
ONEWEB-0509,2022-138Q,2026-07-20T19:55:47.309088,13.19724453,.0002088,87.9194,298.2691,105.0439,255.0925,0,U,54127,999,18124,-.69257906E-4,-.15E-6,0
ONEWEB-0510,2022-138R,2026-07-20T16:36:52.153056,13.20771306,.00018668,87.9179,267.7595,85.6563,274.4784,0,U,54128,999,18370,.24818134E-3,.114E-5,0
ONEWEB-0511,2022-138S,2026-07-20T19:51:13.973184,13.19723757,.00017901,87.9190,298.2710,105.1570,254.9760,0,U,54129,999,18127,.2981273E-5,.14E-6,0
ONEWEB-0512,2022-138T,2026-07-20T19:39:51.101280,13.19723956,.00019837,87.9183,298.2754,110.6304,249.5041,0,U,54130,999,18124,.26188175E-4,.23E-6,0
ONEWEB-0513,2022-138U,2026-07-20T19:28:01.269120,13.20269574,.00018356,87.9190,298.2171,127.4863,232.6437,0,U,54131,999,18115,-.204037E-3,-.69E-6,0
ONEWEB-0514,2022-138V,2026-07-20T18:13:25.836384,13.19724340,.00019653,87.9190,298.2841,96.0592,264.0765,0,U,54132,999,18125,.86399906E-4,.48E-6,0
ONEWEB-0515,2022-138W,2026-07-20T16:17:29.351616,13.20772425,.00028409,87.9183,267.7581,83.1909,276.9547,0,U,54133,999,18372,.37450724E-4,.28E-6,0
ONEWEB-0516,2022-138X,2026-07-20T19:26:12.865632,13.19724530,.00021886,87.9186,298.2776,101.7335,258.4043,0,U,54134,999,18126,-.44091093E-4,-.5E-7,0
ONEWEB-0517,2022-138Y,2026-07-20T18:56:38.752224,13.19726316,.00016834,87.9189,298.2765,99.5952,260.5371,0,U,54135,999,18126,-.8950883E-5,.9E-7,0
ONEWEB-0518,2022-138Z,2026-07-20T19:23:56.858208,13.19724394,.00022439,87.9184,298.2798,100.5133,259.6253,0,U,54136,999,18126,-.1622779E-3,-.52E-6,0
ONEWEB-0519,2022-138AA,2026-07-20T20:00:19.685952,13.19723733,.00018149,87.9190,298.2688,99.5352,260.5986,0,U,54137,999,18127,.15579291E-3,.75E-6,0
ONEWEB-0520,2022-138AB,2026-07-20T19:01:11.962848,13.19724239,.00021281,87.9194,298.2770,106.5593,253.5774,0,U,54138,999,18125,-.19365043E-3,-.65E-6,0
ONEWEB-0521,2022-138AC,2026-07-20T19:48:56.617056,13.19723482,.00018145,87.9196,298.2600,98.3280,261.8059,0,U,54139,999,18120,-.55177325E-4,-.9E-7,0
